{"type":"FeatureCollection","features":[{"type":"Feature","properties":{},"geometry":{"coordinates":[[[77.58897374634836,12.968123237021018],[77.59596003255695,12.974237546825591],[77.59903929324418,12.976770357857376],[77.59721822337917,12.980609834872084],[77.59440384268015,12.97910954208848],[77.59211922775825,12.976576769211306],[77.59077825813074,12.977560843266957],[77.58857641911209,12.974447284151054],[77.58818621731422,12.971575584194895],[77.58897374634836,12.968123237021018]]],"type":"Polygon"}}]}